GSAT0214 (GALILEO 18)
1 41862U 16069D   25330.15483393  .00000049  00000+0  00000+0 0  9993
2 41862  55.3707 106.7056 0000958 292.9085  67.0579  1.70474623 56180